<?xml version="1.0" encoding="UTF-8"?>
<kml xmlns="http://www.opengis.net/kml/2.2">
  <Document>
    <name>Studio</name>
    <description>AI Training, Development, Consulting &amp; Governance — Worldwide. Serving all major cities across Australia.</description>

    <!-- Primary Business Location -->
    <Placemark>
      <name>Studio — Head Office</name>
      <description><![CDATA[
        <p><strong>Studio</strong></p>
        <p>AI Training, Development, Consulting &amp; Governance</p>
        <p>Worldwide</p>
        <p>Website: <a href="https://example.com">https://example.com</a></p>
        <p>Email: contact@example.com</p>
      ]]></description>
      <Point>
        <coordinates>115.8605,-31.9505,0</coordinates>
      </Point>
      <ExtendedData>
        <Data name="business_name">
          <value>Studio</value>
        </Data>
        <Data name="category">
          <value>AI Consulting, AI Training, AI Development, AI Governance</value>
        </Data>
        <Data name="website">
          <value>https://example.com</value>
        </Data>
        <Data name="email">
          <value>contact@example.com</value>
        </Data>
        <Data name="location">
          <value>Worldwide</value>
        </Data>
      </ExtendedData>
    </Placemark>

    <!-- Service Area -->
    <Folder>
      <name>Service Area</name>
      <description>Studio serves all major cities across Australia</description>

      <Placemark>
        <name>Studio — Sydney Service Area</name>
        <description><![CDATA[Studio serves Sydney, NSW. <a href="https://example.com">example.com</a>]]></description>
        <Point>
          <coordinates>151.2093,-33.8688,0</coordinates>
        </Point>
      </Placemark>

      <Placemark>
        <name>Studio — Melbourne Service Area</name>
        <description><![CDATA[Studio serves Melbourne, VIC. <a href="https://example.com">example.com</a>]]></description>
        <Point>
          <coordinates>144.9631,-37.8136,0</coordinates>
        </Point>
      </Placemark>

      <Placemark>
        <name>Studio — Brisbane Service Area</name>
        <description><![CDATA[Studio serves Brisbane, QLD. <a href="https://example.com">example.com</a>]]></description>
        <Point>
          <coordinates>153.0251,-27.4698,0</coordinates>
        </Point>
      </Placemark>

      <Placemark>
        <name>Studio — Adelaide Service Area</name>
        <description><![CDATA[Studio serves Adelaide, SA. <a href="https://example.com">example.com</a>]]></description>
        <Point>
          <coordinates>138.6007,-34.9285,0</coordinates>
        </Point>
      </Placemark>

      <Placemark>
        <name>Studio — Gold Coast Service Area</name>
        <description><![CDATA[Studio serves Gold Coast, QLD. <a href="https://example.com">example.com</a>]]></description>
        <Point>
          <coordinates>153.4000,-28.0167,0</coordinates>
        </Point>
      </Placemark>

      <Placemark>
        <name>Studio — Canberra Service Area</name>
        <description><![CDATA[Studio serves Canberra, ACT. <a href="https://example.com">example.com</a>]]></description>
        <Point>
          <coordinates>149.1300,-35.2809,0</coordinates>
        </Point>
      </Placemark>

      <Placemark>
        <name>Studio — Newcastle Service Area</name>
        <description><![CDATA[Studio serves Newcastle, NSW. <a href="https://example.com">example.com</a>]]></description>
        <Point>
          <coordinates>151.7817,-32.9283,0</coordinates>
        </Point>
      </Placemark>

      <Placemark>
        <name>Studio — Hobart Service Area</name>
        <description><![CDATA[Studio serves Hobart, TAS. <a href="https://example.com">example.com</a>]]></description>
        <Point>
          <coordinates>147.3272,-42.8821,0</coordinates>
        </Point>
      </Placemark>

      <Placemark>
        <name>Studio — Wollongong Service Area</name>
        <description><![CDATA[Studio serves Wollongong, NSW. <a href="https://example.com">example.com</a>]]></description>
        <Point>
          <coordinates>150.8931,-34.4278,0</coordinates>
        </Point>
      </Placemark>

      <Placemark>
        <name>Studio — Sunshine Coast Service Area</name>
        <description><![CDATA[Studio serves Sunshine Coast, QLD. <a href="https://example.com">example.com</a>]]></description>
        <Point>
          <coordinates>153.0667,-26.6500,0</coordinates>
        </Point>
      </Placemark>

      <Placemark>
        <name>Studio — Geelong Service Area</name>
        <description><![CDATA[Studio serves Geelong, VIC. <a href="https://example.com">example.com</a>]]></description>
        <Point>
          <coordinates>144.3500,-38.1500,0</coordinates>
        </Point>
      </Placemark>

      <Placemark>
        <name>Studio — Townsville Service Area</name>
        <description><![CDATA[Studio serves Townsville, QLD. <a href="https://example.com">example.com</a>]]></description>
        <Point>
          <coordinates>146.7867,-19.2590,0</coordinates>
        </Point>
      </Placemark>

      <Placemark>
        <name>Studio — Cairns Service Area</name>
        <description><![CDATA[Studio serves Cairns, QLD. <a href="https://example.com">example.com</a>]]></description>
        <Point>
          <coordinates>145.7781,-16.9186,0</coordinates>
        </Point>
      </Placemark>

      <Placemark>
        <name>Studio — Darwin Service Area</name>
        <description><![CDATA[Studio serves Darwin, NT. <a href="https://example.com">example.com</a>]]></description>
        <Point>
          <coordinates>130.8456,-12.4634,0</coordinates>
        </Point>
      </Placemark>

      <Placemark>
        <name>Studio — Toowoomba Service Area</name>
        <description><![CDATA[Studio serves Toowoomba, QLD. <a href="https://example.com">example.com</a>]]></description>
        <Point>
          <coordinates>151.9507,-27.5598,0</coordinates>
        </Point>
      </Placemark>

      <Placemark>
        <name>Studio — Ballarat Service Area</name>
        <description><![CDATA[Studio serves Ballarat, VIC. <a href="https://example.com">example.com</a>]]></description>
        <Point>
          <coordinates>143.8503,-37.5622,0</coordinates>
        </Point>
      </Placemark>

      <Placemark>
        <name>Studio — Bendigo Service Area</name>
        <description><![CDATA[Studio serves Bendigo, VIC. <a href="https://example.com">example.com</a>]]></description>
        <Point>
          <coordinates>144.2794,-36.7570,0</coordinates>
        </Point>
      </Placemark>

      <Placemark>
        <name>Studio — Launceston Service Area</name>
        <description><![CDATA[Studio serves Launceston, TAS. <a href="https://example.com">example.com</a>]]></description>
        <Point>
          <coordinates>147.1390,-41.4332,0</coordinates>
        </Point>
      </Placemark>

    </Folder>
  </Document>
</kml>
